STARLINK-3349           
1 50813U 22001L   26068.47527967  .00045078  00000+0  12714-2 0  9991
2 50813  53.2075 124.5069 0004097 337.7117  22.3708 15.35981260231027
STARLINK-35674          
1 67117U 25299R   26068.74016561 -.00272339  00000+0 -82099-2 0  9998
2 67117  43.0003 168.7409 0002929 355.3183   4.7644 15.34683331 13128
